OBJECT_NAME,OBJECT_ID,EPOCH,MEAN_MOTION,ECCENTRICITY,INCLINATION,RA_OF_ASC_NODE,ARG_OF_PERICENTER,MEAN_ANOMALY,EPHEMERIS_TYPE,CLASSIFICATION_TYPE,NORAD_CAT_ID,ELEMENT_SET_NO,REV_AT_EPOCH,BSTAR,MEAN_MOTION_DOT,MEAN_MOTION_DDOT
IONOSFERA-M 2,2024-199B,2026-07-12T06:20:11.158656,14.22762108,.00003925,98.7138,66.0781,114.5216,245.6003,0,U,61736,999,13439,.32397269E-4,.29E-6,0
PRSC-EO1,2025-012A,2026-07-11T07:44:52.484352,15.17752178,.00066307,97.4221,264.3100,161.2543,198.8936,0,U,62725,999,8185,.20455326E-3,.4065E-4,0
BIOMASS,2025-090A,2026-07-11T23:46:55.191648,14.67535714,.00013609,98.0751,19.9432,93.9105,266.2255,0,U,63772,999,6432,.10730208E-3,.56E-5,0
GOSAT-GW (IBUKI GW),2025-141A,2026-07-12T06:44:32.091936,14.67554796,.00014326,98.0566,130.1903,85.5575,274.5793,0,U,64694,999,5552,.49866338E-4,.235E-5,0
IONOSFERA-M 3,2025-155A,2026-07-12T07:18:00.854784,14.21490527,.00022055,98.6038,154.5788,116.9412,243.1992,0,U,64876,999,4997,.20960512E-4,.3E-7,0
IONOSFERA-M 4,2025-155B,2026-07-12T06:26:45.881376,14.21492908,.00017719,98.6037,154.4612,102.6280,257.5096,0,U,64877,999,4996,.21489721E-4,.4E-7,0
MICROCARB,2025-156A,2026-07-11T19:32:12.568704,14.72882876,.00173514,98.0075,269.5636,181.4107,178.7055,0,U,64899,999,5159,.50798874E-4,.276E-5,0
CO3D 3,2025-156B,2026-07-12T06:23:10.544064,15.20222467,.00018314,97.4338,271.5985,100.3817,259.7625,0,U,64900,999,5334,.11278195E-3,.2376E-4,0
CO3D 4,2025-156C,2026-07-12T06:23:25.766016,15.20192193,.00014121,97.4336,271.5988,159.3625,200.7667,0,U,64901,999,5334,.37357442E-4,.741E-5,0
CO3D 2,2025-156D,2026-07-12T07:10:11.553312,15.20206868,.00012914,97.4337,271.5293,89.4028,270.7355,0,U,64902,999,5334,.11955549E-3,.2522E-4,0
CO3D 1,2025-156E,2026-07-12T07:10:24.417408,15.20210493,.00013074,97.4337,271.5296,101.5278,258.6104,0,U,64903,999,5334,.12144137E-3,.2563E-4,0
PRSC-S1,2025-164A,2026-07-12T06:09:20.318688,15.06620506,.00062485,41.1293,146.6007,178.7800,181.3030,0,U,65055,999,5221,.15584183E-3,.2173E-4,0
SENTINEL-6B,2025-264A,2026-07-11T20:03:41.990688,12.80930071,.00078732,66.0413,83.9841,268.7579,91.2534,0,U,66514,999,3032,-.41261051E-4,-.71E-6,0
CAS500-3,2025-274F,2026-07-12T05:23:38.285088,14.88379554,.00064228,97.7438,120.7064,46.1254,314.0493,0,U,66655,999,3387,.77800885E-4,.667E-5,0
CSG-3,2026-001A,2026-07-11T23:24:35.570880,14.82150701,.00015004,97.8893,16.2188,93.2995,266.8389,0,U,67304,999,2813,.26380391E-4,.158E-5,0
PRSC-E03,2026-092A,2026-07-12T07:19:55.243200,15.06800715,.00046849,38.0019,301.5499,233.2066,126.8266,0,U,68835,999,1174,.10090156E-3,.1422E-4,0
CAS500-2,2026-100AK,2026-07-11T16:41:29.872896,15.20876867,.00080047,97.3877,90.0874,306.8039,53.2461,0,U,69013,999,1053,.15743373E-3,.3412E-4,0
