IONOSFERA-M 2           
1 61736U 24199B   26193.26401804  .00000029  00000+0  32397-4 0  9992
2 61736  98.7138  66.0781 0000392 114.5216 245.6003 14.22762108134396
PRSC-EO1                
1 62725U 25012A   26192.32282968  .00004065  00000+0  20455-3 0  9995
2 62725  97.4221 264.3100 0006630 161.2543 198.8936 15.17752178 81852
BIOMASS                 
1 63772U 25090A   26192.99091657  .00000560  00000+0  10730-3 0  9991
2 63772  98.0751  19.9432 0001360  93.9105 266.2255 14.67535714 64328
GOSAT-GW (IBUKI GW)     
1 64694U 25141A   26193.28092699  .00000235  00000+0  49866-4 0  9994
2 64694  98.0566 130.1903 0001432  85.5575 274.5793 14.67554796 55525
IONOSFERA-M 3           
1 64876U 25155A   26193.30417656  .00000003  00000+0  20961-4 0  9996
2 64876  98.6038 154.5788 0002205 116.9412 243.1992 14.21490527 49972
IONOSFERA-M 4           
1 64877U 25155B   26193.26858659  .00000004  00000+0  21490-4 0  9993
2 64877  98.6037 154.4612 0001771 102.6280 257.5096 14.21492908 49967
MICROCARB               
1 64899U 25156A   26192.81403436  .00000276  00000+0  50799-4 0  9992
2 64899  98.0075 269.5636 0017351 181.4107 178.7055 14.72882876 51599
CO3D 3                  
1 64900U 25156B   26193.26609426  .00002376  00000+0  11278-3 0  9993
2 64900  97.4338 271.5985 0001831 100.3817 259.7625 15.20222467 53347
CO3D 4                  
1 64901U 25156C   26193.26627044  .00000741  00000+0  37357-4 0  9991
2 64901  97.4336 271.5988 0001412 159.3625 200.7667 15.20192193 53349
CO3D 2                  
1 64902U 25156D   26193.29874483  .00002522  00000+0  11956-3 0  9991
2 64902  97.4337 271.5293 0001291  89.4028 270.7355 15.20206868 53341
CO3D 1                  
1 64903U 25156E   26193.29889372  .00002563  00000+0  12144-3 0  9990
2 64903  97.4337 271.5296 0001307 101.5278 258.6104 15.20210493 53342
PRSC-S1                 
1 65055U 25164A   26193.25648517  .00002173  00000+0  15584-3 0  9996
2 65055  41.1293 146.6007 0006248 178.7800 181.3030 15.06620506 52215
SENTINEL-6B             
1 66514U 25264A   26192.83590267 -.00000071  00000+0 -41261-4 0  9998
2 66514  66.0413  83.9841 0007873 268.7579  91.2534 12.80930071 30329
CAS500-3                
1 66655U 25274F   26193.22474867  .00000667  00000+0  77801-4 0  9994
2 66655  97.7438 120.7064 0006422  46.1254 314.0493 14.88379554 33873
CSG-3                   
1 67304U 26001A   26192.97541170  .00000158  00000+0  26380-4 0  9999
2 67304  97.8893  16.2188 0001500  93.2995 266.8389 14.82150701 28130
PRSC-E03                
1 68835U 26092A   26193.30550050  .00001422  00000+0  10090-3 0  9999
2 68835  38.0019 301.5499 0004684 233.2066 126.8266 15.06800715 11745
CAS500-2                
1 69013U 26100AK  26192.69548464  .00003412  00000+0  15743-3 0  9996
2 69013  97.3877  90.0874 0008004 306.8039  53.2461 15.20876867 10531
